NORAD_CAT_ID,OBJECT_NAME,OBJECT_TYPE,EPOCH,MEAN_MOTION,ECCENTRICITY,INCLINATION,RA_OF_ASC_NODE,ARG_OF_PERICENTER,MEAN_ANOMALY,BSTAR,MEAN_MOTION_DOT,MEAN_MOTION_DDOT,TLE_LINE0,TLE_LINE1,TLE_LINE2,SEMIMAJOR_AXIS,PERIOD,APOGEE,PERIGEE,DECAYED
56470.0,STARLINK-5523,PAYLOAD,2023-09-14 14:00:01,15.1563934,0.0003181,69.9974,252.1106,276.5321,328.5225,-0.054759,-0.00962844,0.0,0 STARLINK-5523,1 56470U 23064Y   23257.58335648 -.00962844  00000-0 -54759-1 0  9994,2 56470  69.9974 252.1106 0003181 276.5321 328.5225 15.15639340  5980,6897.175,95.009,521.234,516.846,0.0
56470.0,STARLINK-5523,PAYLOAD,2023-09-14 22:00:00,15.14946569,0.0003172,69.9977,251.2479,270.868,351.9495,-0.050851,-0.00882642,0.0,0 STARLINK-5523,1 56470U 23064Y   23257.91667824 -.00882642  00000-0 -50851-1 0  9991,2 56470  69.9977 251.2479 0003172 270.8680 351.9495 15.14946569  5826,6899.278,95.053,523.331,518.954,0.0
56470.0,STARLINK-5523,PAYLOAD,2023-09-15 04:00:00,15.14488227,0.0003106,69.9979,250.6013,275.6363,270.0271,-0.055329,-0.00943126,0.0,0 STARLINK-5523,1 56470U 23064Y   23258.16667824 -.00943126  00000-0 -55329-1 0  9999,2 56470  69.9979 250.6013 0003106 275.6363 270.0271 15.14488227 20296,6900.67,95.082,524.678,520.391,0.0
56470.0,STARLINK-5523,PAYLOAD,2023-09-15 14:00:01,15.13683889,0.0003212,69.9976,249.5247,274.9053,21.1949,-0.058112,-0.00966418,0.0,0 STARLINK-5523,1 56470U 23064Y   23258.58334491 -.00966418  00000-0 -58112-1 0  9998,2 56470  69.9976 249.5247 0003212 274.9053  21.1949 15.13683889  5936,6903.114,95.132,527.196,522.762,0.0
56470.0,STARLINK-5523,PAYLOAD,2023-09-16 06:00:00,15.12348913,0.0003279,69.9981,247.8053,274.6223,51.6488,-0.056622,-0.00911257,0.0,0 STARLINK-5523,1 56470U 23064Y   23259.25001157 -.00911257  00000-0 -56622-1 0  9998,2 56470  69.9981 247.8053 0003279 274.6223  51.6488 15.12348913 20452,6907.176,95.216,531.306,526.776,0.0
56470.0,STARLINK-5523,PAYLOAD,2023-09-16 14:00:01,15.117257,0.0003272,69.998,246.9467,275.5336,64.6357,-0.061336,-0.00965606,0.0,0 STARLINK-5523,1 56470U 23064Y   23259.58334491 -.00965606  00000-0 -61336-1 0  9999,2 56470  69.9980 246.9467 0003272 275.5336  64.6357 15.11725700  5979,6909.074,95.255,533.2,528.678,0.0
56470.0,STARLINK-5523,PAYLOAD,2023-09-17 06:00:00,15.10391497,0.0003288,69.9985,245.2325,275.9535,89.6921,-0.059683,-0.00909711,0.0,0 STARLINK-5523,1 56470U 23064Y   23260.25001157 -.00909711  00000-0 -59683-1 0  9992,2 56470  69.9985 245.2325 0003288 275.9535  89.6921 15.10391497 20614,6913.142,95.34,537.28,532.734,0.0
56470.0,STARLINK-5523,PAYLOAD,2023-09-17 14:00:01,15.09768258,0.0003253,69.9984,244.3765,276.5585,100.6395,-0.064731,-0.00965204,0.0,0 STARLINK-5523,1 56470U 23064Y   23260.58334491 -.00965204  00000-0 -64731-1 0  9997,2 56470  69.9984 244.3765 0003253 276.5585 100.6395 15.09768258  6024,6915.045,95.379,539.159,534.66,0.0
56470.0,STARLINK-5523,PAYLOAD,2023-09-17 22:00:00,15.09081277,0.0003219,69.9988,243.5216,271.9001,116.0784,-0.06033,-0.00888521,0.0,0 STARLINK-5523,1 56470U 23064Y   23260.91667824 -.00888521  00000-0 -60330-1 0  9990,2 56470  69.9988 243.5216 0003219 271.9001 116.0784 15.09081277 20718,6917.143,95.422,541.235,536.781,0.0
56470.0,STARLINK-5523,PAYLOAD,2023-09-18 14:00:01,15.07809378,0.0003228,69.9988,241.814,277.3284,129.857,-0.068133,-0.00962906,0.0,0 STARLINK-5523,1 56470U 23064Y   23261.58334491 -.00962906  00000-0 -68133-1 0  9994,2 56470  69.9988 241.8140 0003228 277.3284 129.8570 15.07809378 20812,6921.032,95.503,545.131,540.663,0.0
56470.0,STARLINK-5523,PAYLOAD,2023-09-18 22:00:00,15.07126811,0.0003176,69.9991,240.9618,272.8102,142.8074,-0.063877,-0.00891553,0.0,0 STARLINK-5523,1 56470U 23064Y   23261.91667824 -.00891553  00000-0 -63877-1 0  9999,2 56470  69.9991 240.9618 0003176 272.8102 142.8074 15.07126811  5841,6923.122,95.546,547.186,542.788,0.0
56470.0,STARLINK-5523,PAYLOAD,2023-09-19 06:00:00,15.06475818,0.0003237,69.999,240.1102,278.4965,144.7766,-0.066113,-0.0090551,0.0,0 STARLINK-5523,1 56470U 23064Y   23262.25001157 -.00905510  00000-0 -66113-1 0  9993,2 56470  69.9990 240.1102 0003237 278.4965 144.7766 15.06475818 20914,6925.116,95.587,549.223,544.74,0.0
56470.0,STARLINK-5523,PAYLOAD,2023-09-19 22:00:00,15.05172595,0.0003143,69.9992,238.4097,273.5012,162.7151,-0.067647,-0.00895229,0.0,0 STARLINK-5523,1 56470U 23064Y   23262.91667824 -.00895229  00000-0 -67647-1 0  9993,2 56470  69.9992 238.4097 0003143 273.5012 162.7151 15.05172595 21019,6929.113,95.67,553.156,548.8,0.0
56470.0,STARLINK-5523,PAYLOAD,2023-09-20 14:00:01,15.03892076,0.0003158,69.9988,236.7124,278.2852,167.754,-0.075313,-0.0096897,0.0,0 STARLINK-5523,1 56470U 23064Y   23263.58334491 -.00968970  00000-0 -75313-1 0  9991,2 56470  69.9988 236.7124 0003158 278.2852 167.7540 15.03892076 21115,6933.046,95.752,557.1,552.721,0.0
56470.0,STARLINK-5523,PAYLOAD,2023-09-20 22:00:00,15.0321923,0.0003117,69.9991,235.8652,273.9767,175.7976,-0.071712,-0.00900222,0.0,0 STARLINK-5523,1 56470U 23064Y   23263.91667824 -.00900222  00000-0 -71712-1 0  9992,2 56470  69.9991 235.8652 0003117 273.9767 175.7976 15.03219230  5903,6935.114,95.794,559.141,554.818,0.0
56470.0,STARLINK-5523,PAYLOAD,2023-09-21 06:00:00,15.02560982,0.0003206,69.999,235.0187,280.0057,172.7329,-0.073234,-0.00903142,0.0,0 STARLINK-5523,1 56470U 23064Y   23264.25001157 -.00903142  00000-0 -73234-1 0  9996,2 56470  69.9990 235.0187 0003206 280.0057 172.7329 15.02560982 21210,6937.14,95.836,561.229,556.781,0.0
56470.0,STARLINK-5523,PAYLOAD,2023-09-21 14:00:01,15.01933142,0.0003149,69.9987,234.173,278.1453,176.7599,-0.079049,-0.00965608,0.0,0 STARLINK-5523,1 56470U 23064Y   23264.58334491 -.00965608  00000-0 -79049-1 0  9997,2 56470  69.9987 234.1730 0003149 278.1453 176.7599 15.01933142  5894,6939.073,95.876,563.123,558.753,0.0
56470.0,STARLINK-5523,PAYLOAD,2023-09-21 22:00:01,15.01266111,0.0003099,69.9989,233.3282,273.7357,182.6188,-0.076052,-0.00906018,0.0,0 STARLINK-5523,1 56470U 23064Y   23264.91668981 -.00906018  00000-0 -76052-1 0  9999,2 56470  69.9989 233.3282 0003099 273.7357 182.6188 15.01266111 21317,6941.128,95.919,565.144,560.842,0.0
56470.0,STARLINK-5523,PAYLOAD,2023-09-22 14:00:01,14.99925376,0.0003038,69.9986,231.6413,277.1602,179.5805,-0.072026,-0.0083354,0.0,0 STARLINK-5523,1 56470U 23064Y   23265.58334491 -.00833540  00000-0 -72026-1 0  9995,2 56470  69.9986 231.6413 0003038 277.1602 179.5805 14.99925376 21418,6945.264,96.005,569.239,565.019,0.0
56470.0,STARLINK-5523,PAYLOAD,2023-09-22 22:00:00,14.99235134,0.0002895,69.9991,230.7991,272.499,183.2787,0.0044729,0.00054973,0.0,0 STARLINK-5523,1 56470U 23064Y   23265.91667824  .00054973  00000-0  44729-2 0  9994,2 56470  69.9991 230.7991 0002895 272.4990 183.2787 14.99235134 21465,6947.395,96.049,571.272,567.249,0.0
56470.0,STARLINK-5523,PAYLOAD,2023-09-23 14:00:01,14.99289915,0.0002836,69.9996,229.1157,276.0759,176.8942,-0.0022601,-0.00027632,0.0,0 STARLINK-5523,1 56470U 23064Y   23266.58334491 -.00027632  00000-0 -22601-2 0  9998,2 56470  69.9996 229.1157 0002836 276.0759 176.8942 14.99289915 21562,6947.226,96.045,571.061,567.121,0.0
56470.0,STARLINK-5523,PAYLOAD,2023-09-24 06:00:00,14.99285322,0.0002888,69.9998,227.4324,277.583,172.652,0.0029515,0.00036193,0.0,0 STARLINK-5523,1 56470U 23064Y   23267.25001157  .00036193  00000-0  29515-2 0  9994,2 56470  69.9998 227.4324 0002888 277.5830 172.6520 14.99285322 21669,6947.24,96.046,571.112,567.099,0.0
56470.0,STARLINK-5523,PAYLOAD,2023-09-24 14:00:01,14.99320253,0.0002864,69.9997,226.5905,274.9,173.9796,-0.0017431,-0.00021368,0.0,0 STARLINK-5523,1 56470U 23064Y   23267.58334491 -.00021368  00000-0 -17431-2 0  9994,2 56470  69.9997 226.5905 0002864 274.9000 173.9796 14.99320253  3940,6947.132,96.044,570.987,567.008,0.0
56470.0,STARLINK-5523,PAYLOAD,2023-09-24 22:00:00,14.99337276,0.000289,70.0001,225.7489,270.3881,177.1502,0.00078376,9.518e-05,0.0,0 STARLINK-5523,1 56470U 23064Y   23267.91667824  .00009518  00000-0  78376-3 0  9997,2 56470  70.0001 225.7489 0002890 270.3881 177.1502 14.99337276  3992,6947.08,96.042,570.952,566.937,0.0
56470.0,STARLINK-5523,PAYLOAD,2023-09-25 06:00:00,14.99330939,0.0002869,70.0,224.9072,274.9748,171.2593,-0.0022325,-0.00027326,0.0,0 STARLINK-5523,1 56470U 23064Y   23268.25001157 -.00027326  00000-0 -22325-2 0  9997,2 56470  70.0000 224.9072 0002869 274.9748 171.2593 14.99330939 21813,6947.099,96.043,570.957,566.971,0.0
56470.0,STARLINK-5523,PAYLOAD,2023-09-25 14:00:01,14.99319641,0.0002823,70.0,224.0654,269.5679,175.4131,-0.00032257,-4.04e-05,0.0,0 STARLINK-5523,1 56470U 23064Y   23268.58335648 -.00004040  00000-0 -32257-3 0  9992,2 56470  70.0000 224.0654 0002823 269.5679 175.4131 14.99319641  4095,6947.134,96.044,570.96,567.038,0.0
56470.0,STARLINK-5523,PAYLOAD,2023-09-25 22:00:00,14.99340492,0.000291,70.0004,223.2238,265.0703,178.5047,0.00076944,9.343e-05,0.0,0 STARLINK-5523,1 56470U 23064Y   23268.91667824  .00009343  00000-0  76944-3 0  9993,2 56470  70.0004 223.2238 0002910 265.0703 178.5047 14.99340492 21912,6947.07,96.042,570.956,566.913,0.0
56470.0,STARLINK-5523,PAYLOAD,2023-09-26 02:25:56,14.99309195,0.0002644,69.9999,222.7573,276.4842,83.6016,0.00017691,2.072e-05,0.0,0 STARLINK-5523,1 56470U 23064Y   23269.10135265  .00002072  00000-0  17691-3 0  9990,2 56470  69.9999 222.7573 0002644 276.4842  83.6016 14.99309195 21942,6947.166,96.044,570.868,567.195,0.0
56470.0,STARLINK-5523,PAYLOAD,2023-09-26 07:14:08,14.99320161,0.0002869,69.9991,222.2521,270.8262,89.2569,0.00020749,2.447e-05,0.0,0 STARLINK-5523,1 56470U 23064Y   23269.30149207  .00002447  00000-0  20749-3 0  9997,2 56470  69.9991 222.2521 0002869 270.8262  89.2569 14.99320161 21979,6947.133,96.044,570.991,567.004,0.0
56470.0,STARLINK-5523,PAYLOAD,2023-09-26 21:38:48,14.99309269,0.0002328,70.0025,220.7365,264.1584,95.931,-2.7517e-05,-4.3e-06,0.0,0 STARLINK-5523,1 56470U 23064Y   23269.90195211 -.00000430  00000-0 -27517-4 0  9992,2 56470  70.0025 220.7365 0002328 264.1584  95.9310 14.99309269 21707,6947.166,96.044,570.649,567.414,0.0
